$$SOE
2460154.500000000, A.D. 2023-Jul-29 00:00:00.0000, -1.995567865859638E+08, 2.985067496686917E+08, -3.462268706568591E+07,
2460161.500000000, A.D. 2023-Aug-05 00:00:00.0000, -2.084412254602691E+08, 2.911251315224363E+08, -3.355881523435369E+07,
2460168.500000000, A.D. 2023-Aug-12 00:00:00.0000, -2.171081228959358E+08, 2.834396628815784E+08, -3.245991677707383E+07,
2460175.500000000, A.D. 2023-Aug-19 00:00:00.0000, -2.255463176926728E+08, 2.754555978191472E+08, -3.132682186403267E+07,
2460182.500000000, A.D. 2023-Aug-26 00:00:00.0000, -2.337446901655619E+08, 2.671786181531981E+08, -3.016041402234267E+07,
2460189.500000000, A.D. 2023-Sep-02 00:00:00.0000, -2.416921791244974E+08, 2.586148417562693E+08, -2.896163092427029E+07,
2460196.500000000, A.D. 2023-Sep-09 00:00:00.0000, -2.493777998410458E+08, 2.497708302113865E+08, -2.773146510344923E+07,
2460203.500000000, A.D. 2023-Sep-16 00:00:00.0000, -2.567906628395346E+08, 2.406535956714732E+08, -2.647096460836095E+07,
2460210.500000000, A.D. 2023-Sep-23 00:00:00.0000, -2.639199930948395E+08, 2.312706071190747E+08, -2.518123359638162E+07,
2460217.500000000, A.D. 2023-Sep-30 00:00:00.0000, -2.707551499694563E+08, 2.216297971228464E+08, -2.386343272817702E+07,
2460224.500000000, A.D. 2023-Oct-07 00:00:00.0000, -2.772856502318900E+08, 2.117395684524843E+08, -2.251877917962658E+07,
2460231.500000000, A.D. 2023-Oct-14 00:00:00.0000, -2.835011930931678E+08, 2.016087971435811E+08, -2.114854662569989E+07,
2460238.500000000, A.D. 2023-Oct-21 00:00:00.0000, -2.893916839931887E+08, 1.912468335100804E+08, -1.975406534713628E+07,
2460245.500000000, A.D. 2023-Oct-28 00:00:00.0000, -2.949472585198551E+08, 1.806635032537899E+08, -1.833672213113791E+07,
2460252.500000000, A.D. 2023-Nov-04 00:00:00.0000, -3.001583076646035E+08, 1.698691077970366E+08, -1.689795990306959E+07,
2460259.500000000, A.D. 2023-Nov-11 00:00:00.0000, -3.050155041745335E+08, 1.588744231360674E+08, -1.543927714243412E+07,
2460266.500000000, A.D. 2023-Nov-18 00:00:00.0000, -3.095098297066944E+08, 1.476906970463452E+08, -1.396222709608997E+07,
2460273.500000000, A.D. 2023-Nov-25 00:00:00.0000, -3.136326026264402E+08, 1.363296445595009E+08, -1.246841678178737E+07,
2460280.500000000, A.D. 2023-Dec-02 00:00:00.0000, -3.173755063251087E+08, 1.248034416025767E+08, -1.095950577459435E+07,
2460287.500000000, A.D. 2023-Dec-09 00:00:00.0000, -3.207306178693280E+08, 1.131247166489438E+08, -9.437204777923536E+06,
2460294.500000000, A.D. 2023-Dec-16 00:00:00.0000, -3.236904365684575E+08, 1.013065403089296E+08, -7.903273994700670E+06,
2460301.500000000, A.D. 2023-Dec-23 00:00:00.0000, -3.262479119677035E+08, 8.936241346873435E+07, -6.359521265049729E+06,
2460308.500000000, A.D. 2023-Dec-30 00:00:00.0000, -3.283964724487521E+08, 7.730625495103098E+07, -4.807799753690004E+06,
2460315.500000000, A.D. 2024-Jan-06 00:00:00.0000, -3.301300560486748E+08, 6.515238626672233E+07, -3.250005212301034E+06,
2460322.500000000, A.D. 2024-Jan-13 00:00:00.0000, -3.314431401611453E+08, 5.291551159821773E+07, -1.688073253505725E+06,
2460329.500000000, A.D. 2024-Jan-20 00:00:00.0000, -3.323307687194790E+08, 4.061069606519432E+07, -1.239764959639572E+05,
2460336.500000000, A.D. 2024-Jan-27 00:00:00.0000, -3.327885787037380E+08, 2.825334290562443E+07, 1.440278657332281E+06,
2460343.500000000, A.D. 2024-Feb-03 00:00:00.0000, -3.328128262108234E+08, 1.585916862390450E+07, 3.002655565311530E+06,
2460350.500000000, A.D. 2024-Feb-10 00:00:00.0000, -3.324004116107888E+08, 3.444175836808027E+06, 4.561091165036555E+06,
2460357.500000000, A.D. 2024-Feb-17 00:00:00.0000, -3.315489034418140E+08, -8.975376135970812E+06, 6.113500038717170E+06,
2460364.500000000, A.D. 2024-Feb-24 00:00:00.0000, -3.302565607966502E+08, -2.138300286546557E+07, 7.657778719662724E+06,
2460371.500000000, A.D. 2024-Mar-02 00:00:00.0000, -3.285223539620177E+08, -3.376202854678332E+07, 9.191810219170511E+06,
2460378.500000000, A.D. 2024-Mar-09 00:00:00.0000, -3.263459829672650E+08, -4.609562183542765E+07, 1.071346874106599E+07,
2460385.500000000, A.D. 2024-Mar-16 00:00:00.0000, -3.237278934479190E+08, -5.836683346619858E+07, 1.222062454570315E+07,
2460392.500000000, A.D. 2024-Mar-23 00:00:00.0000, -3.206692897354529E+08, -7.055863439883415E+07, 1.371114904279706E+07,
2460399.500000000, A.D. 2024-Mar-30 00:00:00.0000, -3.171721472313925E+08, -8.265395434855740E+07, 1.518292029272039E+07,
2460406.500000000, A.D. 2024-Apr-06 00:00:00.0000, -3.132392236423181E+08, -9.463572388076043E+07, 1.663382859088612E+07,
2460413.500000000, A.D. 2024-Apr-13 00:00:00.0000, -3.088740653743615E+08, -1.064869190233741E+08, 1.806178184896523E+07,
2460420.500000000, A.D. 2024-Apr-20 00:00:00.0000, -3.040810099008580E+08, -1.181906054901042E+08, 1.946471104797397E+07,
2460427.500000000, A.D. 2024-Apr-27 00:00:00.0000, -2.988651854990091E+08, -1.297299828347142E+08, 2.084057582289056E+07,
2460434.500000000, A.D. 2024-May-04 00:00:00.0000, -2.932325081776383E+08, -1.410884289913923E+08, 2.218737007823564E+07,
2460441.500000000, A.D. 2024-May-11 00:00:00.0000, -2.871896755029249E+08, -1.522495450422979E+08, 2.350312756982946E+07,
2460448.500000000, A.D. 2024-May-18 00:00:00.0000, -2.807441572143420E+08, -1.631971999158570E+08, 2.478592741295625E+07,
2460455.500000000, A.D. 2024-May-25 00:00:00.0000, -2.739041826056547E+08, -1.739155747392040E+08, 2.603389947994468E+07,
2460462.500000000, A.D. 2024-Jun-01 00:00:00.0000, -2.666787246370491E+08, -1.843892066154571E+08, 2.724522964260282E+07,
2460469.500000000, A.D. 2024-Jun-08 00:00:00.0000, -2.590774805858095E+08, -1.946030315634914E+08, 2.841816480085290E+07,
2460476.500000000, A.D. 2024-Jun-15 00:00:00.0000, -2.511108489181864E+08, -2.045424257947958E+08, 2.955101767201756E+07,
2460483.500000000, A.D. 2024-Jun-22 00:00:00.0000, -2.427899034972782E+08, -2.141932438800975E+08, 3.064217149661894E+07,
2460490.500000000, A.D. 2024-Jun-29 00:00:00.0000, -2.341263673850153E+08, -2.235418553676346E+08, 3.169008467557985E+07,
2460497.500000000, A.D. 2024-Jul-06 00:00:00.0000, -2.251325837591184E+08, -2.325751820841405E+08, 3.269329486609015E+07,
2460504.500000000, A.D. 2024-Jul-13 00:00:00.0000, -2.158214821895688E+08, -2.412807330724069E+08, 3.365042256350002E+07,
2460511.500000000, A.D. 2024-Jul-20 00:00:00.0000, -2.062065424748457E+08, -2.496466358115545E+08, 3.456017442343628E+07,
2460518.500000000, A.D. 2024-Jul-27 00:00:00.0000, -1.963017569251195E+08, -2.576616644953507E+08, 3.542134628637135E+07,
2460525.500000000, A.D. 2024-Aug-03 00:00:00.0000, -1.861215910651870E+08, -2.653152655861359E+08, 3.623282583201822E+07,
2460532.500000000, A.D. 2024-Aug-10 00:00:00.0000, -1.756809428513058E+08, -2.725975805222731E+08, 3.699359483490023E+07,
2460539.500000000, A.D. 2024-Aug-17 00:00:00.0000, -1.649951006275248E+08, -2.794994654608479E+08, 3.770273101027322E+07,
2460546.500000000, A.D. 2024-Aug-24 00:00:00.0000, -1.540797000745050E+08, -2.860125080090253E+08, 3.835940944207163E+07,
2460553.500000000, A.D. 2024-Aug-31 00:00:00.0000, -1.429506803187627E+08, -2.921290409647644E+08, 3.896290357698826E+07,
2460560.500000000, A.D. 2024-Sep-07 00:00:00.0000, -1.316242391203762E+08, -2.978421529282287E+08, 3.951258576489811E+07,
2460567.500000000, A.D. 2024-Sep-14 00:00:00.0000, -1.201167873350553E+08, -3.031456948017069E+08, 4.000792742590265E+07,
2460574.500000000, A.D. 2024-Sep-21 00:00:00.0000, -1.084449049530968E+08, -3.080342818004977E+08, 4.044849907235780E+07,
2460581.500000000, A.D. 2024-Sep-28 00:00:00.0000, -9.662529946186100E+07, -3.125032942587562E+08, 4.083396997612403E+07,
2460588.500000000, A.D. 2024-Oct-05 00:00:00.0000, -8.467476310348345E+07, -3.165488773127288E+08, 4.116410715604946E+07,
2460595.500000000, A.D. 2024-Oct-12 00:00:00.0000, -7.261012961322697E+07, -3.201679365952117E+08, 4.143877397804269E+07,
2460602.500000000, A.D. 2024-Oct-19 00:00:00.0000, -6.044823240016744E+07, -3.233581303524209E+08, 4.165792852703071E+07,
2460609.500000000, A.D. 2024-Oct-26 00:00:00.0000, -4.820586440152106E+07, -3.261178589440922E+08, 4.182162171316381E+07,
2460616.500000000, A.D. 2024-Nov-02 00:00:00.0000, -3.589973953686392E+07, -3.284462520441814E+08, 4.192999510255417E+07,
2460623.500000000, A.D. 2024-Nov-09 00:00:00.0000, -2.354645582704770E+07, -3.303431536960832E+08, 4.198327849052019E+07,
2460630.500000000, A.D. 2024-Nov-16 00:00:00.0000, -1.116246028808754E+07, -3.318091054043385E+08, 4.198178723986198E+07,
2460637.500000000, A.D. 2024-Nov-23 00:00:00.0000, 1.235984333883825E+06, -3.328453275032696E+08, 4.192591940154113E+07,
2460644.500000000, A.D. 2024-Nov-30 00:00:00.0000, 1.363283110281701E+07, -3.334536990407230E+08, 4.181615262149595E+07,
2460651.500000000, A.D. 2024-Dec-07 00:00:00.0000, 2.601227905616434E+07, -3.336367359532984E+08, 4.165304085555837E+07,
2460658.500000000, A.D. 2024-Dec-14 00:00:00.0000, 3.835880125174277E+07, -3.333975665050000E+08, 4.143721108106370E+07,
2460665.500000000, A.D. 2024-Dec-21 00:00:00.0000, 5.065716834796765E+07, -3.327399054216483E+08, 4.116936014066215E+07,
2460672.500000000, A.D. 2024-Dec-28 00:00:00.0000, 6.289246967837474E+07, -3.316680298754814E+08, 4.085025131822693E+07,
2460679.500000000, A.D. 2025-Jan-04 00:00:00.0000, 7.505013442380908E+07, -3.301867551286206E+08, 4.048071062625378E+07,
2460686.500000000, A.D. 2025-Jan-11 00:00:00.0000, 8.711595108140121E+07, -3.283014083542809E+08, 4.006162313028596E+07,
2460693.500000000, A.D. 2025-Jan-18 00:00:00.0000, 9.907608434739210E+07, -3.260178017230873E+08, 3.959392934059611E+07,
2460700.500000000, A.D. 2025-Jan-25 00:00:00.0000, 1.109170897041668E+08, -3.233422053873503E+08, 3.907862162962809E+07,
2460707.500000000, A.D. 2025-Feb-01 00:00:00.0000, 1.226259259588222E+08, -3.202813205412546E+08, 3.851674067338926E+07,
2460714.500000000, A.D. 2025-Feb-08 00:00:00.0000, 1.341899658587192E+08, -3.168422526734056E+08, 3.790937192915827E+07,
2460721.500000000, A.D. 2025-Feb-15 00:00:00.0000, 1.455970048886480E+08, -3.130324851553726E+08, 3.725764215934901E+07,
$$EOE